CCSDS_OMM_VERS = 2.0
CREATION_DATE  = 
ORIGINATOR     = 

OBJECT_NAME    = ISS OBJECT XY
OBJECT_ID      = 1998-067XY
CENTER_NAME    = EARTH
REF_FRAME      = TEME
TIME_SYSTEM    = UTC
MEAN_ELEMENT_THEORY = SGP/SGP4

EPOCH          = 2026-03-13T06:53:57.243840
MEAN_MOTION    = 15.64420991
ECCENTRICITY   = .00034158
INCLINATION    = 51.6270
RA_OF_ASC_NODE = 48.9278
ARG_OF_PERICENTER = 112.5167
MEAN_ANOMALY   = 247.6190

EPHEMERIS_TYPE = 0
CLASSIFICATION_TYPE = U
NORAD_CAT_ID   = 66912
ELEMENT_SET_NO = 999
REV_AT_EPOCH   = 1571
BSTAR          = .10103006E-2
MEAN_MOTION_DOT = .99603E-3
MEAN_MOTION_DDOT = 0

CCSDS_OMM_VERS = 2.0
CREATION_DATE  = 
ORIGINATOR     = 

OBJECT_NAME    = KNACKSAT-2
OBJECT_ID      = 1998-067XZ
CENTER_NAME    = EARTH
REF_FRAME      = TEME
TIME_SYSTEM    = UTC
MEAN_ELEMENT_THEORY = SGP/SGP4

EPOCH          = 2026-03-13T04:54:49.049568
MEAN_MOTION    = 15.52132550
ECCENTRICITY   = .00094795
INCLINATION    = 51.6314
RA_OF_ASC_NODE = 54.3798
ARG_OF_PERICENTER = 198.5087
MEAN_ANOMALY   = 161.5560

EPHEMERIS_TYPE = 0
CLASSIFICATION_TYPE = U
NORAD_CAT_ID   = 67683
ELEMENT_SET_NO = 999
REV_AT_EPOCH   = 533
BSTAR          = .6702363E-3
MEAN_MOTION_DOT = .41086E-3
MEAN_MOTION_DDOT = 0

CCSDS_OMM_VERS = 2.0
CREATION_DATE  = 
ORIGINATOR     = 

OBJECT_NAME    = GXIBA-1
OBJECT_ID      = 1998-067YA
CENTER_NAME    = EARTH
REF_FRAME      = TEME
TIME_SYSTEM    = UTC
MEAN_ELEMENT_THEORY = SGP/SGP4

EPOCH          = 2026-03-13T04:06:57.198240
MEAN_MOTION    = 15.54922629
ECCENTRICITY   = .00113396
INCLINATION    = 51.6303
RA_OF_ASC_NODE = 54.1588
ARG_OF_PERICENTER = 187.6359
MEAN_ANOMALY   = 172.4461

EPHEMERIS_TYPE = 0
CLASSIFICATION_TYPE = U
NORAD_CAT_ID   = 67684
ELEMENT_SET_NO = 999
REV_AT_EPOCH   = 533
BSTAR          = .11971638E-2
MEAN_MOTION_DOT = .82155E-3
MEAN_MOTION_DDOT = 0

CCSDS_OMM_VERS = 2.0
CREATION_DATE  = 
ORIGINATOR     = 

OBJECT_NAME    = CORAL
OBJECT_ID      = 1998-067YB
CENTER_NAME    = EARTH
REF_FRAME      = TEME
TIME_SYSTEM    = UTC
MEAN_ELEMENT_THEORY = SGP/SGP4

EPOCH          = 2026-03-13T07:52:34.142016
MEAN_MOTION    = 15.52544385
ECCENTRICITY   = .00113848
INCLINATION    = 51.6311
RA_OF_ASC_NODE = 53.7042
ARG_OF_PERICENTER = 195.2471
MEAN_ANOMALY   = 164.8178

EPHEMERIS_TYPE = 0
CLASSIFICATION_TYPE = U
NORAD_CAT_ID   = 67685
ELEMENT_SET_NO = 999
REV_AT_EPOCH   = 535
BSTAR          = .74701894E-3
MEAN_MOTION_DOT = .46607E-3
MEAN_MOTION_DDOT = 0

CCSDS_OMM_VERS = 2.0
CREATION_DATE  = 
ORIGINATOR     = 

OBJECT_NAME    = ISS OBJECT YC
OBJECT_ID      = 1998-067YC
CENTER_NAME    = EARTH
REF_FRAME      = TEME
TIME_SYSTEM    = UTC
MEAN_ELEMENT_THEORY = SGP/SGP4

EPOCH          = 2026-03-13T07:42:40.656096
MEAN_MOTION    = 15.53157245
ECCENTRICITY   = .00082298
INCLINATION    = 51.6310
RA_OF_ASC_NODE = 53.6604
ARG_OF_PERICENTER = 163.4448
MEAN_ANOMALY   = 196.6813

EPHEMERIS_TYPE = 0
CLASSIFICATION_TYPE = U
NORAD_CAT_ID   = 67686
ELEMENT_SET_NO = 999
REV_AT_EPOCH   = 535
BSTAR          = .85087358E-3
MEAN_MOTION_DOT = .54336E-3
MEAN_MOTION_DDOT = 0

CCSDS_OMM_VERS = 2.0
CREATION_DATE  = 
ORIGINATOR     = 

OBJECT_NAME    = LEOPARD
OBJECT_ID      = 1998-067YD
CENTER_NAME    = EARTH
REF_FRAME      = TEME
TIME_SYSTEM    = UTC
MEAN_ELEMENT_THEORY = SGP/SGP4

EPOCH          = 2026-03-13T12:34:21.248256
MEAN_MOTION    = 15.52357443
ECCENTRICITY   = .00080546
INCLINATION    = 51.6316
RA_OF_ASC_NODE = 52.7625
ARG_OF_PERICENTER = 168.0251
MEAN_ANOMALY   = 192.0932

EPHEMERIS_TYPE = 0
CLASSIFICATION_TYPE = U
NORAD_CAT_ID   = 67687
ELEMENT_SET_NO = 999
REV_AT_EPOCH   = 530
BSTAR          = .75020449E-3
MEAN_MOTION_DOT = .46429E-3
MEAN_MOTION_DDOT = 0

CCSDS_OMM_VERS = 2.0
CREATION_DATE  = 
ORIGINATOR     = 

OBJECT_NAME    = ISS OBJECT YE
OBJECT_ID      = 1998-067YE
CENTER_NAME    = EARTH
REF_FRAME      = TEME
TIME_SYSTEM    = UTC
MEAN_ELEMENT_THEORY = SGP/SGP4

EPOCH          = 2026-03-13T07:47:10.434912
MEAN_MOTION    = 15.52872730
ECCENTRICITY   = .00080835
INCLINATION    = 51.6312
RA_OF_ASC_NODE = 53.6814
ARG_OF_PERICENTER = 164.1800
MEAN_ANOMALY   = 195.9444

EPHEMERIS_TYPE = 0
CLASSIFICATION_TYPE = U
NORAD_CAT_ID   = 67688
ELEMENT_SET_NO = 999
REV_AT_EPOCH   = 527
BSTAR          = .79442851E-3
MEAN_MOTION_DOT = .50148E-3
MEAN_MOTION_DDOT = 0

CCSDS_OMM_VERS = 2.0
CREATION_DATE  = 
ORIGINATOR     = 

OBJECT_NAME    = CREW DRAGON 12
OBJECT_ID      = 2026-031A
CENTER_NAME    = EARTH
REF_FRAME      = TEME
TIME_SYSTEM    = UTC
MEAN_ELEMENT_THEORY = SGP/SGP4

EPOCH          = 2026-03-13T09:14:46.936608
MEAN_MOTION    = 15.48625615
ECCENTRICITY   = .00079096
INCLINATION    = 51.6324
RA_OF_ASC_NODE = 54.0842
ARG_OF_PERICENTER = 188.2233
MEAN_ANOMALY   = 171.8627

EPHEMERIS_TYPE = 0
CLASSIFICATION_TYPE = U
NORAD_CAT_ID   = 67796
ELEMENT_SET_NO = 999
REV_AT_EPOCH   = 55680
BSTAR          = .19895216E-3
MEAN_MOTION_DOT = .10392E-3
MEAN_MOTION_DDOT = 0

