ISS OBJECT XY           
1 66912U 98067XY  26072.28746810  .00099603  00000+0  10103-2 0  9990
2 66912  51.6270  48.9278 0003415 112.5167 247.6190 15.64420991 15715
KNACKSAT-2              
1 67683U 98067XZ  26072.20473437  .00041086  00000+0  67024-3 0  9997
2 67683  51.6314  54.3798 0009479 198.5087 161.5560 15.52132550  5339
GXIBA-1                 
1 67684U 98067YA  26072.17149535  .00082155  00000+0  11972-2 0  9995
2 67684  51.6303  54.1588 0011339 187.6359 172.4461 15.54922629  5339
CORAL                   
1 67685U 98067YB  26072.32817294  .00046607  00000+0  74702-3 0  9990
2 67685  51.6311  53.7042 0011384 195.2471 164.8178 15.52544385  5358
ISS OBJECT YC           
1 67686U 98067YC  26072.32130389  .00054336  00000+0  85087-3 0  9990
2 67686  51.6310  53.6604 0008229 163.4448 196.6813 15.53157245  5351
LEOPARD                 
1 67687U 98067YD  26072.52385704  .00046429  00000+0  75020-3 0  9996
2 67687  51.6316  52.7625 0008054 168.0251 192.0932 15.52357443  5308
ISS OBJECT YE           
1 67688U 98067YE  26072.32442633  .00050148  00000+0  79443-3 0  9996
2 67688  51.6312  53.6814 0008083 164.1800 195.9444 15.52872730  5271
CREW DRAGON 12          
1 67796U 26031A   26072.38526547  .00010392  00000+0  19895-3 0  9993
2 67796  51.6324  54.0842 0007909 188.2233 171.8627 15.48625615556802
